<?xml version="1.0" encoding="UTF-8"?>
<ndm xmlns:xsi="http://www.w3.org/2001/XMLSchema-instance" xsi:noNamespaceSchemaLocation="https://sanaregistry.org/r/ndmxml/ndmxml-1.0-master.xsd">
<omm id="CCSDS_OMM_VERS" version="2.0">
<header><CREATION_DATE/><ORIGINATOR/></header><body><segment><metadata><OBJECT_NAME>RADSAT-G</OBJECT_NAME><OBJECT_ID>1998-067PB</OBJECT_ID><CENTER_NAME>EARTH</CENTER_NAME><REF_FRAME>TEME</REF_FRAME><TIME_SYSTEM>UTC</TIME_SYSTEM><MEAN_ELEMENT_THEORY>SGP4</MEAN_ELEMENT_THEORY></metadata><data><meanElements><EPOCH>2020-12-14T19:00:53.648640</EPOCH><MEAN_MOTION>15.80857474</MEAN_MOTION><ECCENTRICITY>.0004106</ECCENTRICITY><INCLINATION>51.6372</INCLINATION><RA_OF_ASC_NODE>91.8043</RA_OF_ASC_NODE><ARG_OF_PERICENTER>26.5033</ARG_OF_PERICENTER><MEAN_ANOMALY>333.6178</MEAN_ANOMALY></meanElements><tleParameters><EPHEMERIS_TYPE>0</EPHEMERIS_TYPE><CLASSIFICATION_TYPE>U</CLASSIFICATION_TYPE><NORAD_CAT_ID>43553</NORAD_CAT_ID><ELEMENT_SET_NO>999</ELEMENT_SET_NO><REV_AT_EPOCH>13854</REV_AT_EPOCH><BSTAR>.28447E-3</BSTAR><MEAN_MOTION_DOT>.55893E-3</MEAN_MOTION_DOT><MEAN_MOTION_DDOT>0</MEAN_MOTION_DDOT></tleParameters></data></segment></body></omm>
<omm id="CCSDS_OMM_VERS" version="2.0">
<header><CREATION_DATE/><ORIGINATOR/></header><body><segment><metadata><OBJECT_NAME>AEROCUBE 12A</OBJECT_NAME><OBJECT_ID>2018-046C</OBJECT_ID><CENTER_NAME>EARTH</CENTER_NAME><REF_FRAME>TEME</REF_FRAME><TIME_SYSTEM>UTC</TIME_SYSTEM><MEAN_ELEMENT_THEORY>SGP4</MEAN_ELEMENT_THEORY></metadata><data><meanElements><EPOCH>2020-12-14T08:57:35.881344</EPOCH><MEAN_MOTION>15.30624872</MEAN_MOTION><ECCENTRICITY>.0007409</ECCENTRICITY><INCLINATION>51.6414</INCLINATION><RA_OF_ASC_NODE>320.6671</RA_OF_ASC_NODE><ARG_OF_PERICENTER>216.2685</ARG_OF_PERICENTER><MEAN_ANOMALY>143.7795</MEAN_ANOMALY></meanElements><tleParameters><EPHEMERIS_TYPE>0</EPHEMERIS_TYPE><CLASSIFICATION_TYPE>U</CLASSIFICATION_TYPE><NORAD_CAT_ID>43556</NORAD_CAT_ID><ELEMENT_SET_NO>999</ELEMENT_SET_NO><REV_AT_EPOCH>13492</REV_AT_EPOCH><BSTAR>.88804E-4</BSTAR><MEAN_MOTION_DOT>.2305E-4</MEAN_MOTION_DOT><MEAN_MOTION_DDOT>0</MEAN_MOTION_DDOT></tleParameters></data></segment></body></omm>
<omm id="CCSDS_OMM_VERS" version="2.0">
<header><CREATION_DATE/><ORIGINATOR/></header><body><segment><metadata><OBJECT_NAME>AEROCUBE 12B</OBJECT_NAME><OBJECT_ID>2018-046D</OBJECT_ID><CENTER_NAME>EARTH</CENTER_NAME><REF_FRAME>TEME</REF_FRAME><TIME_SYSTEM>UTC</TIME_SYSTEM><MEAN_ELEMENT_THEORY>SGP4</MEAN_ELEMENT_THEORY></metadata><data><meanElements><EPOCH>2020-12-14T08:11:51.959904</EPOCH><MEAN_MOTION>15.30212479</MEAN_MOTION><ECCENTRICITY>.0007704</ECCENTRICITY><INCLINATION>51.6414</INCLINATION><RA_OF_ASC_NODE>321.9357</RA_OF_ASC_NODE><ARG_OF_PERICENTER>215.7886</ARG_OF_PERICENTER><MEAN_ANOMALY>144.2579</MEAN_ANOMALY></meanElements><tleParameters><EPHEMERIS_TYPE>0</EPHEMERIS_TYPE><CLASSIFICATION_TYPE>U</CLASSIFICATION_TYPE><NORAD_CAT_ID>43557</NORAD_CAT_ID><ELEMENT_SET_NO>999</ELEMENT_SET_NO><REV_AT_EPOCH>13485</REV_AT_EPOCH><BSTAR>.12763E-3</BSTAR><MEAN_MOTION_DOT>.3426E-4</MEAN_MOTION_DOT><MEAN_MOTION_DDOT>0</MEAN_MOTION_DDOT></tleParameters></data></segment></body></omm>
<omm id="CCSDS_OMM_VERS" version="2.0">
<header><CREATION_DATE/><ORIGINATOR/></header><body><segment><metadata><OBJECT_NAME>LEMUR-2-VU</OBJECT_NAME><OBJECT_ID>2018-046E</OBJECT_ID><CENTER_NAME>EARTH</CENTER_NAME><REF_FRAME>TEME</REF_FRAME><TIME_SYSTEM>UTC</TIME_SYSTEM><MEAN_ELEMENT_THEORY>SGP4</MEAN_ELEMENT_THEORY></metadata><data><meanElements><EPOCH>2020-12-15T03:35:43.177920</EPOCH><MEAN_MOTION>15.32263326</MEAN_MOTION><ECCENTRICITY>.0006484</ECCENTRICITY><INCLINATION>51.6417</INCLINATION><RA_OF_ASC_NODE>311.7369</RA_OF_ASC_NODE><ARG_OF_PERICENTER>223.3514</ARG_OF_PERICENTER><MEAN_ANOMALY>136.6958</MEAN_ANOMALY></meanElements><tleParameters><EPHEMERIS_TYPE>0</EPHEMERIS_TYPE><CLASSIFICATION_TYPE>U</CLASSIFICATION_TYPE><NORAD_CAT_ID>43558</NORAD_CAT_ID><ELEMENT_SET_NO>999</ELEMENT_SET_NO><REV_AT_EPOCH>13510</REV_AT_EPOCH><BSTAR>.14966E-3</BSTAR><MEAN_MOTION_DOT>.4366E-4</MEAN_MOTION_DOT><MEAN_MOTION_DDOT>0</MEAN_MOTION_DDOT></tleParameters></data></segment></body></omm>
<omm id="CCSDS_OMM_VERS" version="2.0">
<header><CREATION_DATE/><ORIGINATOR/></header><body><segment><metadata><OBJECT_NAME>LEMUR-2-ALEXANDER</OBJECT_NAME><OBJECT_ID>2018-046F</OBJECT_ID><CENTER_NAME>EARTH</CENTER_NAME><REF_FRAME>TEME</REF_FRAME><TIME_SYSTEM>UTC</TIME_SYSTEM><MEAN_ELEMENT_THEORY>SGP4</MEAN_ELEMENT_THEORY></metadata><data><meanElements><EPOCH>2020-12-14T09:05:59.843040</EPOCH><MEAN_MOTION>15.32431521</MEAN_MOTION><ECCENTRICITY>.0006564</ECCENTRICITY><INCLINATION>51.6414</INCLINATION><RA_OF_ASC_NODE>314.8591</RA_OF_ASC_NODE><ARG_OF_PERICENTER>220.3021</ARG_OF_PERICENTER><MEAN_ANOMALY>139.7475</MEAN_ANOMALY></meanElements><tleParameters><EPHEMERIS_TYPE>0</EPHEMERIS_TYPE><CLASSIFICATION_TYPE>U</CLASSIFICATION_TYPE><NORAD_CAT_ID>43559</NORAD_CAT_ID><ELEMENT_SET_NO>999</ELEMENT_SET_NO><REV_AT_EPOCH>13477</REV_AT_EPOCH><BSTAR>.19596E-3</BSTAR><MEAN_MOTION_DOT>.5865E-4</MEAN_MOTION_DOT><MEAN_MOTION_DDOT>0</MEAN_MOTION_DDOT></tleParameters></data></segment></body></omm>
<omm id="CCSDS_OMM_VERS" version="2.0">
<header><CREATION_DATE/><ORIGINATOR/></header><body><segment><metadata><OBJECT_NAME>LEMUR-2-YUASA</OBJECT_NAME><OBJECT_ID>2018-046G</OBJECT_ID><CENTER_NAME>EARTH</CENTER_NAME><REF_FRAME>TEME</REF_FRAME><TIME_SYSTEM>UTC</TIME_SYSTEM><MEAN_ELEMENT_THEORY>SGP4</MEAN_ELEMENT_THEORY></metadata><data><meanElements><EPOCH>2020-12-14T07:53:20.881824</EPOCH><MEAN_MOTION>15.32193877</MEAN_MOTION><ECCENTRICITY>.0006713</ECCENTRICITY><INCLINATION>51.6410</INCLINATION><RA_OF_ASC_NODE>315.9999</RA_OF_ASC_NODE><ARG_OF_PERICENTER>234.4200</ARG_OF_PERICENTER><MEAN_ANOMALY>125.6156</MEAN_ANOMALY></meanElements><tleParameters><EPHEMERIS_TYPE>0</EPHEMERIS_TYPE><CLASSIFICATION_TYPE>U</CLASSIFICATION_TYPE><NORAD_CAT_ID>43560</NORAD_CAT_ID><ELEMENT_SET_NO>999</ELEMENT_SET_NO><REV_AT_EPOCH>13497</REV_AT_EPOCH><BSTAR>.19448E-3</BSTAR><MEAN_MOTION_DOT>.5773E-4</MEAN_MOTION_DOT><MEAN_MOTION_DDOT>0</MEAN_MOTION_DDOT></tleParameters></data></segment></body></omm>
<omm id="CCSDS_OMM_VERS" version="2.0">
<header><CREATION_DATE/><ORIGINATOR/></header><body><segment><metadata><OBJECT_NAME>LEMUR-2-TOMHENDERSON</OBJECT_NAME><OBJECT_ID>2018-046H</OBJECT_ID><CENTER_NAME>EARTH</CENTER_NAME><REF_FRAME>TEME</REF_FRAME><TIME_SYSTEM>UTC</TIME_SYSTEM><MEAN_ELEMENT_THEORY>SGP4</MEAN_ELEMENT_THEORY></metadata><data><meanElements><EPOCH>2020-12-14T18:18:46.467648</EPOCH><MEAN_MOTION>15.31901939</MEAN_MOTION><ECCENTRICITY>.0006838</ECCENTRICITY><INCLINATION>51.6420</INCLINATION><RA_OF_ASC_NODE>314.3901</RA_OF_ASC_NODE><ARG_OF_PERICENTER>235.7321</ARG_OF_PERICENTER><MEAN_ANOMALY>124.3013</MEAN_ANOMALY></meanElements><tleParameters><EPHEMERIS_TYPE>0</EPHEMERIS_TYPE><CLASSIFICATION_TYPE>U</CLASSIFICATION_TYPE><NORAD_CAT_ID>43561</NORAD_CAT_ID><ELEMENT_SET_NO>999</ELEMENT_SET_NO><REV_AT_EPOCH>13459</REV_AT_EPOCH><BSTAR>.14947E-3</BSTAR><MEAN_MOTION_DOT>.4308E-4</MEAN_MOTION_DOT><MEAN_MOTION_DDOT>0</MEAN_MOTION_DDOT></tleParameters></data></segment></body></omm>
<omm id="CCSDS_OMM_VERS" version="2.0">
<header><CREATION_DATE/><ORIGINATOR/></header><body><segment><metadata><OBJECT_NAME>SIRIUSSAT-1</OBJECT_NAME><OBJECT_ID>1998-067PG</OBJECT_ID><CENTER_NAME>EARTH</CENTER_NAME><REF_FRAME>TEME</REF_FRAME><TIME_SYSTEM>UTC</TIME_SYSTEM><MEAN_ELEMENT_THEORY>SGP4</MEAN_ELEMENT_THEORY></metadata><data><meanElements><EPOCH>2020-12-09T13:12:48.091968</EPOCH><MEAN_MOTION>16.39998780</MEAN_MOTION><ECCENTRICITY>.0009437</ECCENTRICITY><INCLINATION>51.6588</INCLINATION><RA_OF_ASC_NODE>97.6693</RA_OF_ASC_NODE><ARG_OF_PERICENTER>42.2825</ARG_OF_PERICENTER><MEAN_ANOMALY>52.9592</MEAN_ANOMALY></meanElements><tleParameters><EPHEMERIS_TYPE>0</EPHEMERIS_TYPE><CLASSIFICATION_TYPE>U</CLASSIFICATION_TYPE><NORAD_CAT_ID>43595</NORAD_CAT_ID><ELEMENT_SET_NO>999</ELEMENT_SET_NO><REV_AT_EPOCH>13278</REV_AT_EPOCH><BSTAR>.56251E-3</BSTAR><MEAN_MOTION_DOT>.7916525E-1</MEAN_MOTION_DOT><MEAN_MOTION_DDOT>.12514E-4</MEAN_MOTION_DDOT></tleParameters></data></segment></body></omm>

</ndm>
