RADSAT-G                
1 43553U 98067PB  20349.79228760  .00055893  00000-0  28447-3 0  9997
2 43553  51.6372  91.8043 0004106  26.5033 333.6178 15.80857474138542
AEROCUBE 12A            
1 43556U 18046C   20349.37333196  .00002305  00000-0  88804-4 0  9997
2 43556  51.6414 320.6671 0007409 216.2685 143.7795 15.30624872134924
AEROCUBE 12B            
1 43557U 18046D   20349.34157361  .00003426  00000-0  12763-3 0  9998
2 43557  51.6414 321.9357 0007704 215.7886 144.2579 15.30212479134859
LEMUR-2-VU              
1 43558U 18046E   20350.14980530  .00004366  00000-0  14966-3 0  9992
2 43558  51.6417 311.7369 0006484 223.3514 136.6958 15.32263326135104
LEMUR-2-ALEXANDER       
1 43559U 18046F   20349.37916485  .00005865  00000-0  19596-3 0  9993
2 43559  51.6414 314.8591 0006564 220.3021 139.7475 15.32431521134776
LEMUR-2-YUASA           
1 43560U 18046G   20349.32871391  .00005773  00000-0  19448-3 0  9990
2 43560  51.6410 315.9999 0006713 234.4200 125.6156 15.32193877134970
LEMUR-2-TOMHENDERSON    
1 43561U 18046H   20349.76303782  .00004308  00000-0  14947-3 0  9995
2 43561  51.6420 314.3901 0006838 235.7321 124.3013 15.31901939134595
SIRIUSSAT-1             
1 43595U 98067PG  20344.55055662  .07916525  12514-4  56251-3 0  9997
2 43595  51.6588  97.6693 0009437  42.2825  52.9592 16.39998780132780
